SPAINSAT NG I           
1 62852U 25021A   26194.49535214  .00000148  00000+0  00000+0 0  9999
2 62852   0.0150  49.4669 0000197 192.7004 256.5149  1.00271360  4252
QZS-6 (MICHIBIKI-6)     
1 62876U 25023A   26194.43638545 -.00000235  00000+0  00000+0 0  9990
2 62876   0.0132 343.7815 0001781 148.6981  46.3835  1.00267398  5215
ZHONGXING-10R           
1 63075U 25036A   26194.51164156 -.00000356  00000+0  00000+0 0  9991
2 63075   0.0103 271.0853 0004149 236.5433  78.4573  1.00273001  5224
TJS-15                  
1 63157U 25045A   26193.79506713 -.00000265  00000+0  00000+0 0  9999
2 63157   0.3038  85.6382 0003365 294.9720 290.6614  1.00269974  5012
TIANLIAN 2-04           
1 63361U 25062A   26194.64808439 -.00000134  00000+0  00000+0 0  9995
2 63361   4.3086 274.0593 0031602   9.3988 321.3904  1.00270205  4868
TJS-16                  
1 63397U 25064A   26193.71327553 -.00000106  00000+0  00000+0 0  9995
2 63397   1.1614  81.2993 0002494 290.2536 336.4481  1.00270809  4641
TJS-17                  
1 63524U 25073A   26193.70672579 -.00000071  00000+0  00000+0 0  9998
2 63524   1.1274  82.4745 0001000 302.8111 324.2376  1.00270456  4549
TIANLIAN 2-05           
1 63662U 25084A   26194.49370549  .00000125  00000+0  00000+0 0  9991
2 63662   4.3865 279.5335 0002561 153.6687  56.2628  1.00270577  4647
TJS-19                  
1 63924U 25097A   26193.81548726 -.00000273  00000+0  00000+0 0  9990
2 63924   3.2447 317.8543 0003960 245.4199 162.2041  1.00267046  4409
CHINASAT 3B             
1 64062U 25106A   26194.52288711 -.00000049  00000+0  00000+0 0  9990
2 64062   0.0237 142.6506 0003918   2.4021 141.9078  1.00271851  4320
SXM-10                  
1 64290U 25122A   26194.47058735 -.00000021  00000+0  00000+0 0  9996
2 64290   0.0152  34.5784 0001824 324.7820 345.2422  1.00271858  3943
COSMOS 2589             
1 64467U 25131A   26193.57049675 -.00000290  00000+0  00000+0 0  9993
2 64467   0.0332 118.2803 0001601  84.3172  31.2303  1.00272485  3816
CHINASAT 9C             
1 64470U 25132A   26194.50800155  .00000000  00000+0  00000+0 0  9998
2 64470   0.0152  57.4571 0002887  58.0003  91.0210  1.00267731  4410
MTG-S1                  
1 64723U 25143A   26194.34709719 -.00000010  00000+0  00000+0 0  9999
2 64723   0.5853 344.6575 0003501 262.0105 169.0934  1.00273104  3681
DROR 1                  
1 64784U 25148A   26194.34631718 -.00000037  00000+0  00000+0 0  9993
2 64784   0.0491 262.2841 0001975 132.8950  16.7142  1.00271595  3554
SHIYAN-29               
1 65486U 25196A   26193.96518303 -.00000284  00000+0  00000+0 0  9991
2 65486  28.8488  18.2102 0013413 177.8791 177.5073  1.00276908  3135
NUSANTARA LIMA (NUSANT*)
1 65588U 25205A   26194.22680622 -.00000360  00000+0  00000+0 0  9994
2 65588   0.0048 108.0133 0000460  92.2195 285.3677  1.00270259  2983
TJS-20                  
1 66142U 25238A   26193.93178899  .00000030  00000+0  00000+0 0  9995
2 66142   5.4136 299.4489 0004282 181.2781 207.9699  1.00274129  2593
CMS-03 (GSAT-7R)        
1 66311U 25249B   26194.50436551 -.00000080  00000+0  00000+0 0  9997
2 66311   0.0316 271.8871 0001445 167.1350 107.9006  1.00271158  2617
VIASAT-3 F2             
1 66454U 25261A   26194.47411872 -.00000237  00000+0  00000+0 0  9998
2 66454   0.0059 252.2572 0000740 334.9101 155.8962  1.00270985  3054
SHIJIAN-28 (SJ-28)      
1 66549U 25277A   26194.51285491 -.00000359  00000+0  00000+0 0  9996
2 66549   4.4720 271.7150 0001181  22.6051 298.5185  1.00267655  2416
TJS-22                  
1 66990U 25290A   26193.80754484 -.00000005  00000+0  00000+0 0  9993
2 66990   1.4677 286.9079 0002696 319.1976  41.7959  1.00269698  2285
TJS-23                  
1 67226U 25306A   26193.53233987  .00000026  00000+0  00000+0 0  9996
2 67226   5.5312 297.3541 0004982 192.6213 167.6210  1.00274777  2144
FENGYUN 4C              
1 67246U 25312A   26194.51606159 -.00000327  00000+0  00000+0 0  9994
2 67246   0.0381 174.1513 0000653  45.0000  31.0120  1.00269020  2047
SHIJIAN-29A (SJ-29A)    
1 67302U 25315A   26194.20650145 -.00000073  00000+0  00000+0 0  9998
2 67302   3.4617  94.4870 0004850  52.9383 291.1535  1.00272245  1875
SHIJIAN-29B (SJ-29B)    
1 67403U 25315C   26194.19087578 -.00000074  00000+0  00000+0 0  9993
2 67403   3.4606  94.4795 0004938  54.1739 284.3305  1.00272531  1942
ELEKTRO-L 5             
1 67756U 26028A   26193.98070335 -.00000099  00000+0  00000+0 0  9992
2 67756   0.2103 323.5750 0002054 175.8596 220.5701  1.00271957  1512
JAM-E JAM 1             
1 67757U 26028B   26194.21129280  .00000154  00000+0  00000+0 0  9995
2 67757   0.2102 311.8978 0001736 321.4560 127.8153  1.00272753  1380
ECHOSTAR 25             
1 68126U 26045A   26194.52058796  .00000000  00000+0  00000+0 0  9992
2 68126   0.0258  61.3823 0001817  49.7665 257.6767  1.00272192  1259
TJS-24                  
1 69235U 26116A   26194.55987750 -.00000235  00000+0  00000+0 0  9998
2 69235   0.0734  95.3326 0000376 129.4474 358.5082  1.00270163   490
